[{"OBJECT_NAME":"STARLINK-32801","OBJECT_ID":"2025-034G","EPOCH":"2026-03-09T22:44:54.481056","MEAN_MOTION":15.30183304,"ECCENTRICITY":0.00013355,"INCLINATION":53.1573,"RA_OF_ASC_NODE":257.1174,"ARG_OF_PERICENTER":96.1512,"MEAN_ANOMALY":263.9641,"EPHEMERIS_TYPE":0,"CLASSIFICATION_TYPE":"U","NORAD_CAT_ID":63035,"ELEMENT_SET_NO":999,"REV_AT_EPOCH":5911,"BSTAR":0.001184157,"MEAN_MOTION_DOT":0.00034859,"MEAN_MOTION_DDOT":0},{"OBJECT_NAME":"KUIPER-00175","OBJECT_ID":"2025-301C","EPOCH":"2026-03-09T23:30:37.840032","MEAN_MOTION":15.30996371,"ECCENTRICITY":0.00022792,"INCLINATION":51.8781,"RA_OF_ASC_NODE":63.6978,"ARG_OF_PERICENTER":50.5695,"MEAN_ANOMALY":309.549,"EPHEMERIS_TYPE":0,"CLASSIFICATION_TYPE":"U","NORAD_CAT_ID":67135,"ELEMENT_SET_NO":999,"REV_AT_EPOCH":1385,"BSTAR":0.00066732304,"MEAN_MOTION_DOT":0.00019968,"MEAN_MOTION_DDOT":0}]
