STARLINK-32801          
1 63035U 25034G   26068.94785279  .00034859  00000+0  11842-2 0  9990
2 63035  53.1573 257.1174 0001335  96.1512 263.9641 15.30183304 59111
KUIPER-00175            
1 67135U 25301C   26068.97960463  .00019968  00000+0  66732-3 0  9998
2 67135  51.8781  63.6978 0002279  50.5695 309.5490 15.30996371 13854
